EUTELSAT QUANTUM        
1 49056U 21069B   25213.19995948  .00000133  00000+0  00000+0 0  9994
2 49056   0.0344 279.8772 0002050 219.8199 290.0207  1.00273380 14712
EUTELSAT KONNECT VHTS   
1 53765U 22110A   25213.26240175  .00000025  00000+0  00000+0 0  9997
2 53765   0.0564  97.6239 0002687  30.9465 278.7429  1.00270534  3610
EUTELSAT HOTBIRD 13F    
1 54048U 22134A   25213.26448176  .00000095  00000+0  00000+0 0  9996
2 54048   0.0627 281.0689 0001893  86.0321  51.2380  1.00272723 10164
EUTELSAT HOTBIRD 13G    
1 54225U 22146A   25213.12171429  .00000095  00000+0  00000+0 0  9995
2 54225   0.0535 245.8429 0002240 293.8068 187.1250  1.00272928  4257
EUTELSAT 10B            
1 54259U 22157A   25213.26387510  .00000077  00000+0  00000+0 0  9999
2 54259   0.0499  94.4052 0001618  41.9717 278.7215  1.00274462  9803
EUTELSAT 36D            
1 59346U 24059A   25213.26898845  .00000163  00000+0  00000+0 0  9998
2 59346   0.0176  89.5894 0000397  50.5468 302.6682  1.00271149  4931
